{"type": "FeatureCollection", "features": [ {"type": "Feature", "properties": {"norad_id": 37867, "name": "COSMOS 2476 (744)", "group": "gnss", "lat": 8.560310452278866, "lon": 82.81184439984226, "alt_km": 19172.901911353812, "timestamp": "2025-12-23T11:34:48.409572+00:00", "meta": {"OBJECT_NAME": "COSMOS 2476 (744)", "OBJECT_ID": "2011-064A", "EPOCH": "2025-12-19T06:05:26.552256", "MEAN_MOTION": 2.13103916, "ECCENTRICITY": 0.0024321, "INCLINATION": 65.1662, "RA_OF_ASC_NODE": 78.9509, "ARG_OF_PERICENTER": 234.6548, "MEAN_ANOMALY": 130.4776, "EPHEMERIS_TYPE": 0, "CLASSIFICATION_TYPE": "U", "NORAD_CAT_ID": 37867, "ELEMENT_SET_NO": 999, "REV_AT_EPOCH": 10993, "BSTAR": 0, "MEAN_MOTION_DOT": -3e-07, "MEAN_MOTION_DDOT": 0}, "tle": {"line1": "1 37867U 11064A   25353.25377954 -.00000030  00000+0  00000+0 0  9995", "line2": "2 37867  65.1662  78.9509 0024321 234.6548 130.4776  2.13103916109937"}}, "geometry": {"type": "Point", "coordinates": [82.81184439984226, 8.560310452278866]}}, {"type": "Feature", "properties": {"norad_id": 37868, "name": "COSMOS 2477 (745)", "group": "gnss", "lat": -9.084151426276643, "lon": -96.86287645080624, "alt_km": 19092.8389340452, "timestamp": "2025-12-23T11:34:48.409583+00:00", "meta": {"OBJECT_NAME": "COSMOS 2477 (745)", "OBJECT_ID": "2011-064B", "EPOCH": "2025-12-23T05:19:57.056160", "MEAN_MOTION": 2.13103036, "ECCENTRICITY": 0.0021546, "INCLINATION": 65.1742, "RA_OF_ASC_NODE": 78.8944, "ARG_OF_PERICENTER": 235.4149, "MEAN_ANOMALY": 115.0574, "EPHEMERIS_TYPE": 0, "CLASSIFICATION_TYPE": "U", "NORAD_CAT_ID": 37868, "ELEMENT_SET_NO": 999, "REV_AT_EPOCH": 11000, "BSTAR": 0, "MEAN_MOTION_DOT": 0, "MEAN_MOTION_DDOT": 0}, "tle": {"line1": "1 37868U 11064B   25357.22218815  .00000000  00000+0  00000+0 0  9993", "line2": "2 37868  65.1742  78.8944 0021546 235.4149 115.0574  2.13103036110009"}}, "geometry": {"type": "Point", "coordinates": [-96.86287645080624, -9.084151426276643]}}, {"type": "Feature", "properties": {"norad_id": 37869, "name": "COSMOS 2475 (743)", "group": "gnss", "lat": 30.695510649637146, "lon": -116.99913121368144, "alt_km": 19141.889198458062, "timestamp": "2025-12-23T11:34:48.409601+00:00", "meta": {"OBJECT_NAME": "COSMOS 2475 (743)", "OBJECT_ID": "2011-064C", "EPOCH": "2025-12-22T12:35:30.005376", "MEAN_MOTION": 2.13101682, "ECCENTRICITY": 0.00266922, "INCLINATION": 65.1807, "RA_OF_ASC_NODE": 78.9382, "ARG_OF_PERICENTER": 249.0834, "MEAN_ANOMALY": 242.1615, "EPHEMERIS_TYPE": 0, "CLASSIFICATION_TYPE": "U", "NORAD_CAT_ID": 37869, "ELEMENT_SET_NO": 999, "REV_AT_EPOCH": 11000, "BSTAR": 0, "MEAN_MOTION_DOT": -2e-08, "MEAN_MOTION_DDOT": 0}, "tle": {"line1": "1 37869U 11064C   25356.52465284 -.00000002  00000+0  00000+0 0  9993", "line2": "2 37869  65.1807  78.9382 0026692 249.0834 242.1615  2.13101682110001"}}, "geometry": {"type": "Point", "coordinates": [-116.99913121368144, 30.695510649637146]}}, {"type": "Feature", "properties": {"norad_id": 37948, "name": "BEIDOU-2 IGSO-5 (C10)", "group": "gnss", "lat": 47.78949398625188, "lon": -3.860252940586104, "alt_km": 36112.89812373712, "timestamp": "2025-12-23T11:34:48.409613+00:00", "meta": {"OBJECT_NAME": "BEIDOU-2 IGSO-5 (C10)", "OBJECT_ID": "2011-073A", "EPOCH": "2025-12-22T17:56:38.660352", "MEAN_MOTION": 1.00289046, "ECCENTRICITY": 0.01097824, "INCLINATION": 48.0017, "RA_OF_ASC_NODE": 273.7363, "ARG_OF_PERICENTER": 222.2409, "MEAN_ANOMALY": 318.2771, "EPHEMERIS_TYPE": 0, "CLASSIFICATION_TYPE": "U", "NORAD_CAT_ID": 37948, "ELEMENT_SET_NO": 999, "REV_AT_EPOCH": 5136, "BSTAR": 0, "MEAN_MOTION_DOT": -1.4e-06, "MEAN_MOTION_DDOT": 0}, "tle": {"line1": "1 37948U 11073A   25356.74766968 -.00000140  00000+0  00000+0 0  9991", "line2": "2 37948  48.0017 273.7363 0109782 222.2409 318.2771  1.00289046 51366"}}, "geometry": {"type": "Point", "coordinates": [-3.860252940586104, 47.78949398625188]}}, {"type": "Feature", "properties": {"norad_id": 37951, "name": "LUCH 5A (SDCM/PRN 140)", "group": "gnss", "lat": -0.4758573514084233, "lon": 73.05764946632533, "alt_km": 35808.08319487804, "timestamp": "2025-12-23T11:34:48.409624+00:00", "meta": {"OBJECT_NAME": "LUCH 5A (SDCM/PRN 140)", "OBJECT_ID": "2011-074B", "EPOCH": "2025-12-22T22:31:15.671712", "MEAN_MOTION": 1.00269053, "ECCENTRICITY": 0.0005161, "INCLINATION": 8.3041, "RA_OF_ASC_NODE": 76.4345, "ARG_OF_PERICENTER": 191.0716, "MEAN_ANOMALY": 329.0874, "EPHEMERIS_TYPE": 0, "CLASSIFICATION_TYPE": "U", "NORAD_CAT_ID": 37951, "ELEMENT_SET_NO": 999, "REV_AT_EPOCH": 5128, "BSTAR": 0, "MEAN_MOTION_DOT": -3.2e-07, "MEAN_MOTION_DDOT": 0}, "tle": {"line1": "1 37951U 11074B   25356.93837583 -.00000032  00000+0  00000+0 0  9999", "line2": "2 37951   8.3041  76.4345 0005161 191.0716 329.0874  1.00269053 51285"}}, "geometry": {"type": "Point", "coordinates": [73.05764946632533, -0.4758573514084233]}}, {"type": "Feature", "properties": {"norad_id": 38091, "name": "BEIDOU-2 G5 (C05)", "group": "gnss", "lat": -3.0332106701857073, "lon": -35.24755912360848, "alt_km": 35736.539760665466, "timestamp": "2025-12-23T11:34:48.409635+00:00", "meta": {"OBJECT_NAME": "BEIDOU-2 G5 (C05)", "OBJECT_ID": "2012-008A", "EPOCH": "2025-12-19T16:03:31.750272", "MEAN_MOTION": 1.00268606, "ECCENTRICITY": 0.0012969, "INCLINATION": 3.1258, "RA_OF_ASC_NODE": 70.6861, "ARG_OF_PERICENTER": 231.3522, "MEAN_ANOMALY": 86.1393, "EPHEMERIS_TYPE": 0, "CLASSIFICATION_TYPE": "U", "NORAD_CAT_ID": 38091, "ELEMENT_SET_NO": 999, "REV_AT_EPOCH": 5056, "BSTAR": 0, "MEAN_MOTION_DOT": 7.9e-07, "MEAN_MOTION_DDOT": 0}, "tle": {"line1": "1 38091U 12008A   25353.66911748  .00000079  00000+0  00000+0 0  9996", "line2": "2 38091   3.1258  70.6861 0012969 231.3522  86.1393  1.00268606 50560"}}, "geometry": {"type": "Point", "coordinates": [-35.24755912360848, -3.0332106701857073]}}, {"type": "Feature", "properties": {"norad_id": 38250, "name": "BEIDOU-2 M3 (C11)", "group": "gnss", "lat": -54.95030338493113, "lon": -123.88698988872044, "alt_km": 21466.860571578705, "timestamp": "2025-12-23T11:34:48.409646+00:00", "meta": {"OBJECT_NAME": "BEIDOU-2 M3 (C11)", "OBJECT_ID": "2012-018A", "EPOCH": "2025-12-21T23:49:10.133760", "MEAN_MOTION": 1.86230181, "ECCENTRICITY": 0.00240993, "INCLINATION": 55.9124, "RA_OF_ASC_NODE": 310.8468, "ARG_OF_PERICENTER": 275.3188, "MEAN_ANOMALY": 84.4018, "EPHEMERIS_TYPE": 0, "CLASSIFICATION_TYPE": "U", "NORAD_CAT_ID": 38250, "ELEMENT_SET_NO": 999, "REV_AT_EPOCH": 9264, "BSTAR": 0, "MEAN_MOTION_DOT": -6e-07, "MEAN_MOTION_DDOT": 0}, "tle": {"line1": "1 38250U 12018A   25355.99247840 -.00000060  00000+0  00000+0 0  9998", "line2": "2 38250  55.9124 310.8468 0024099 275.3188  84.4018  1.86230181 92640"}}, "geometry": {"type": "Point", "coordinates": [-123.88698988872044, -54.95030338493113]}}, {"type": "Feature", "properties": {"norad_id": 38251, "name": "BEIDOU-2 M4 (C12)", "group": "gnss", "lat": -28.731588132832158, "lon": -71.84960285803416, "alt_km": 21501.81579844771, "timestamp": "2025-12-23T11:34:48.409656+00:00", "meta": {"OBJECT_NAME": "BEIDOU-2 M4 (C12)", "OBJECT_ID": "2012-018B", "EPOCH": "2025-12-21T22:11:20.549760", "MEAN_MOTION": 1.86229896, "ECCENTRICITY": 0.00152556, "INCLINATION": 55.8135, "RA_OF_ASC_NODE": 310.0771, "ARG_OF_PERICENTER": 279.1681, "MEAN_ANOMALY": 80.6551, "EPHEMERIS_TYPE": 0, "CLASSIFICATION_TYPE": "U", "NORAD_CAT_ID": 38251, "ELEMENT_SET_NO": 999, "REV_AT_EPOCH": 9264, "BSTAR": 0, "MEAN_MOTION_DOT": -6e-07, "MEAN_MOTION_DDOT": 0}, "tle": {"line1": "1 38251U 12018B   25355.92454340 -.00000060  00000+0  00000+0 0  9997", "line2": "2 38251  55.8135 310.0771 0015255 279.1681  80.6551  1.86229896 92646"}}, "geometry": {"type": "Point", "coordinates": [-71.84960285803416, -28.731588132832158]}}, {"type": "Feature", "properties": {"norad_id": 38652, "name": "SES-5 (EGNOS/PRN 136)", "group": "gnss", "lat": -0.05170689466244021, "lon": -89.04730649124383, "alt_km": 35777.99255020526, "timestamp": "2025-12-23T11:34:48.409667+00:00", "meta": {"OBJECT_NAME": "SES-5 (EGNOS/PRN 136)", "OBJECT_ID": "2012-036A", "EPOCH": "2025-12-23T01:10:21.285408", "MEAN_MOTION": 1.00272166, "ECCENTRICITY": 0.0001882, "INCLINATION": 0.0604, "RA_OF_ASC_NODE": 303.4914, "ARG_OF_PERICENTER": 330.5025, "MEAN_ANOMALY": 200.4256, "EPHEMERIS_TYPE": 0, "CLASSIFICATION_TYPE": "U", "NORAD_CAT_ID": 38652, "ELEMENT_SET_NO": 999, "REV_AT_EPOCH": 4269, "BSTAR": 0, "MEAN_MOTION_DOT": 5.5e-07, "MEAN_MOTION_DDOT": 0}, "tle": {"line1": "1 38652U 12036A   25357.04885747  .00000055  00000+0  00000+0 0  9999", "line2": "2 38652   0.0604 303.4914 0001882 330.5025 200.4256  1.00272166 42692"}}, "geometry": {"type": "Point", "coordinates": [-89.04730649124383, -0.05170689466244021]}}, {"type": "Feature", "properties": {"norad_id": 38775, "name": "BEIDOU-2 M6 (C14)", "group": "gnss", "lat": 17.862230093831467, "lon": -123.63053526241835, "alt_km": 21557.812610199166, "timestamp": "2025-12-23T11:34:48.409688+00:00", "meta": {"OBJECT_NAME": "BEIDOU-2 M6 (C14)", "OBJECT_ID": "2012-050B", "EPOCH": "2025-12-23T05:54:39.234816", "MEAN_MOTION": 1.86230862, "ECCENTRICITY": 0.0011445, "INCLINATION": 56.3871, "RA_OF_ASC_NODE": 68.7189, "ARG_OF_PERICENTER": 343.1863, "MEAN_ANOMALY": 16.829, "EPHEMERIS_TYPE": 0, "CLASSIFICATION_TYPE": "U", "NORAD_CAT_ID": 38775, "ELEMENT_SET_NO": 999, "REV_AT_EPOCH": 9003, "BSTAR": 0, "MEAN_MOTION_DOT": -2.5e-07, "MEAN_MOTION_DDOT": 0}, "tle": {"line1": "1 38775U 12050B   25357.24628744 -.00000025  00000+0  00000+0 0  9993", "line2": "2 38775  56.3871  68.7189 0011445 343.1863  16.8290  1.86230862 90038"}}, "geometry": {"type": "Point", "coordinates": [-123.63053526241835, 17.862230093831467]}}]}